{"type": "FeatureCollection", "features": [ {"type": "Feature", "properties": {"norad_id": 34079, "name": "IRIDIUM 33 DEB", "group": "iridium-33-debris", "lat": -45.53232326239751, "lon": -173.8340609831326, "alt_km": 623.9293897993484, "timestamp": "2025-12-26T08:37:54.964830+00:00", "meta": {"OBJECT_NAME": "IRIDIUM 33 DEB", "OBJECT_ID": "1997-051CN", "EPOCH": "2025-12-26T01:24:32.664096", "MEAN_MOTION": 14.83885214, "ECCENTRICITY": 0.0003911, "INCLINATION": 86.3778, "RA_OF_ASC_NODE": 2.6027, "ARG_OF_PERICENTER": 316.8508, "MEAN_ANOMALY": 102.125, "EPHEMERIS_TYPE": 0, "CLASSIFICATION_TYPE": "U", "NORAD_CAT_ID": 34079, "ELEMENT_SET_NO": 999, "REV_AT_EPOCH": 89175, "BSTAR": 0.0018326, "MEAN_MOTION_DOT": 0.00015253, "MEAN_MOTION_DDOT": 0}, "tle": {"line1": "1 34079U 97051CN  25360.05871139  .00015253  00000+0  18326-2 0  9992", "line2": "2 34079  86.3778   2.6027 0003911 316.8508 102.1250 14.83885214891751"}}, "geometry": {"type": "Point", "coordinates": [-173.8340609831326, -45.53232326239751]}}, {"type": "Feature", "properties": {"norad_id": 34088, "name": "IRIDIUM 33 DEB", "group": "iridium-33-debris", "lat": -12.406461272745512, "lon": 23.664918657652724, "alt_km": 600.4880743763542, "timestamp": "2025-12-26T08:37:54.964840+00:00", "meta": {"OBJECT_NAME": "IRIDIUM 33 DEB", "OBJECT_ID": "1997-051CX", "EPOCH": "2025-12-26T02:30:32.479776", "MEAN_MOTION": 14.91984405, "ECCENTRICITY": 0.0007156, "INCLINATION": 86.3845, "RA_OF_ASC_NODE": 24.5792, "ARG_OF_PERICENTER": 135.5751, "MEAN_ANOMALY": 282.7745, "EPHEMERIS_TYPE": 0, "CLASSIFICATION_TYPE": "U", "NORAD_CAT_ID": 34088, "ELEMENT_SET_NO": 999, "REV_AT_EPOCH": 88941, "BSTAR": 0.0022346, "MEAN_MOTION_DOT": 0.00022718, "MEAN_MOTION_DDOT": 0}, "tle": {"line1": "1 34088U 97051CX  25360.10454259  .00022718  00000+0  22346-2 0  9999", "line2": "2 34088  86.3845  24.5792 0007156 135.5751 282.7745 14.91984405889414"}}, "geometry": {"type": "Point", "coordinates": [23.664918657652724, -12.406461272745512]}}, {"type": "Feature", "properties": {"norad_id": 34091, "name": "IRIDIUM 33 DEB", "group": "iridium-33-debris", "lat": 73.93921763807673, "lon": 73.4348365558321, "alt_km": 637.1840520457845, "timestamp": "2025-12-26T08:37:54.964851+00:00", "meta": {"OBJECT_NAME": "IRIDIUM 33 DEB", "OBJECT_ID": "1997-051DA", "EPOCH": "2025-12-26T03:26:13.490016", "MEAN_MOTION": 14.82802245, "ECCENTRICITY": 0.0034384, "INCLINATION": 86.3408, "RA_OF_ASC_NODE": 60.6907, "ARG_OF_PERICENTER": 245.3053, "MEAN_ANOMALY": 114.4589, "EPHEMERIS_TYPE": 0, "CLASSIFICATION_TYPE": "U", "NORAD_CAT_ID": 34091, "ELEMENT_SET_NO": 999, "REV_AT_EPOCH": 88065, "BSTAR": 0.0044295, "MEAN_MOTION_DOT": 0.00036356, "MEAN_MOTION_DDOT": 0}, "tle": {"line1": "1 34091U 97051DA  25360.14321169  .00036356  00000+0  44295-2 0  9990", "line2": "2 34091  86.3408  60.6907 0034384 245.3053 114.4589 14.82802245880655"}}, "geometry": {"type": "Point", "coordinates": [73.4348365558321, 73.93921763807673]}}, {"type": "Feature", "properties": {"norad_id": 34097, "name": "IRIDIUM 33 DEB", "group": "iridium-33-debris", "lat": 22.004677253428238, "lon": 173.8562454698482, "alt_km": 829.7592876802519, "timestamp": "2025-12-26T08:37:54.964862+00:00", "meta": {"OBJECT_NAME": "IRIDIUM 33 DEB", "OBJECT_ID": "1997-051DG", "EPOCH": "2025-12-25T23:31:33.693312", "MEAN_MOTION": 14.3488456, "ECCENTRICITY": 0.0081292, "INCLINATION": 86.2006, "RA_OF_ASC_NODE": 355.5625, "ARG_OF_PERICENTER": 318.8102, "MEAN_ANOMALY": 40.6976, "EPHEMERIS_TYPE": 0, "CLASSIFICATION_TYPE": "U", "NORAD_CAT_ID": 34097, "ELEMENT_SET_NO": 999, "REV_AT_EPOCH": 87309, "BSTAR": 0.0015957, "MEAN_MOTION_DOT": 4.723e-05, "MEAN_MOTION_DDOT": 0}, "tle": {"line1": "1 34097U 97051DG  25359.98025108  .00004723  00000+0  15957-2 0  9996", "line2": "2 34097  86.2006 355.5625 0081292 318.8102  40.6976 14.34884560873095"}}, "geometry": {"type": "Point", "coordinates": [173.8562454698482, 22.004677253428238]}}, {"type": "Feature", "properties": {"norad_id": 34145, "name": "IRIDIUM 33 DEB", "group": "iridium-33-debris", "lat": 74.68605403651291, "lon": -19.54125262779237, "alt_km": 707.6218566487705, "timestamp": "2025-12-26T08:37:54.964872+00:00", "meta": {"OBJECT_NAME": "IRIDIUM 33 DEB", "OBJECT_ID": "1997-051DY", "EPOCH": "2025-12-25T22:17:54.684096", "MEAN_MOTION": 14.42385613, "ECCENTRICITY": 0.0055445, "INCLINATION": 86.2129, "RA_OF_ASC_NODE": 326.6523, "ARG_OF_PERICENTER": 51.9493, "MEAN_ANOMALY": 308.6692, "EPHEMERIS_TYPE": 0, "CLASSIFICATION_TYPE": "U", "NORAD_CAT_ID": 34145, "ELEMENT_SET_NO": 999, "REV_AT_EPOCH": 87828, "BSTAR": 0.0013201, "MEAN_MOTION_DOT": 4.465e-05, "MEAN_MOTION_DDOT": 0}, "tle": {"line1": "1 34145U 97051DY  25359.92910514  .00004465  00000+0  13201-2 0  9991", "line2": "2 34145  86.2129 326.6523 0055445  51.9493 308.6692 14.42385613878282"}}, "geometry": {"type": "Point", "coordinates": [-19.54125262779237, 74.68605403651291]}}, {"type": "Feature", "properties": {"norad_id": 34146, "name": "IRIDIUM 33 DEB", "group": "iridium-33-debris", "lat": 42.870737030608154, "lon": -12.758526414188362, "alt_km": 737.7802025704223, "timestamp": "2025-12-26T08:37:54.964882+00:00", "meta": {"OBJECT_NAME": "IRIDIUM 33 DEB", "OBJECT_ID": "1997-051DZ", "EPOCH": "2025-12-25T22:37:42.914784", "MEAN_MOTION": 14.49132672, "ECCENTRICITY": 0.0027003, "INCLINATION": 86.2842, "RA_OF_ASC_NODE": 343.9669, "ARG_OF_PERICENTER": 176.2288, "MEAN_ANOMALY": 214.0299, "EPHEMERIS_TYPE": 0, "CLASSIFICATION_TYPE": "U", "NORAD_CAT_ID": 34146, "ELEMENT_SET_NO": 999, "REV_AT_EPOCH": 88298, "BSTAR": 0.00090103, "MEAN_MOTION_DOT": 3.461e-05, "MEAN_MOTION_DDOT": 0}, "tle": {"line1": "1 34146U 97051DZ  25359.94285781  .00003461  00000+0  90103-3 0  9997", "line2": "2 34146  86.2842 343.9669 0027003 176.2288 214.0299 14.49132672882987"}}, "geometry": {"type": "Point", "coordinates": [-12.758526414188362, 42.870737030608154]}}, {"type": "Feature", "properties": {"norad_id": 34159, "name": "IRIDIUM 33 DEB", "group": "iridium-33-debris", "lat": -39.68448481655201, "lon": 39.39623880968844, "alt_km": 766.8182303916965, "timestamp": "2025-12-26T08:37:54.964893+00:00", "meta": {"OBJECT_NAME": "IRIDIUM 33 DEB", "OBJECT_ID": "1997-051EN", "EPOCH": "2025-12-26T02:08:20.179680", "MEAN_MOTION": 14.38525461, "ECCENTRICITY": 0.0026279, "INCLINATION": 86.3493, "RA_OF_ASC_NODE": 42.5483, "ARG_OF_PERICENTER": 240.6679, "MEAN_ANOMALY": 119.1893, "EPHEMERIS_TYPE": 0, "CLASSIFICATION_TYPE": "U", "NORAD_CAT_ID": 34159, "ELEMENT_SET_NO": 999, "REV_AT_EPOCH": 88151, "BSTAR": 0.00037826, "MEAN_MOTION_DOT": 1.179e-05, "MEAN_MOTION_DDOT": 0}, "tle": {"line1": "1 34159U 97051EN  25360.08912245  .00001179  00000+0  37826-3 0  9997", "line2": "2 34159  86.3493  42.5483 0026279 240.6679 119.1893 14.38525461881517"}}, "geometry": {"type": "Point", "coordinates": [39.39623880968844, -39.68448481655201]}}, {"type": "Feature", "properties": {"norad_id": 34350, "name": "IRIDIUM 33 DEB", "group": "iridium-33-debris", "lat": -33.990850898015545, "lon": -5.585708591866198, "alt_km": 757.1053486118199, "timestamp": "2025-12-26T08:37:54.964903+00:00", "meta": {"OBJECT_NAME": "IRIDIUM 33 DEB", "OBJECT_ID": "1997-051ES", "EPOCH": "2025-12-26T00:45:52.672032", "MEAN_MOTION": 14.45417432, "ECCENTRICITY": 0.0023521, "INCLINATION": 86.3273, "RA_OF_ASC_NODE": 357.0387, "ARG_OF_PERICENTER": 94.6131, "MEAN_ANOMALY": 326.9931, "EPHEMERIS_TYPE": 0, "CLASSIFICATION_TYPE": "U", "NORAD_CAT_ID": 34350, "ELEMENT_SET_NO": 999, "REV_AT_EPOCH": 88485, "BSTAR": 0.00033943, "MEAN_MOTION_DOT": 1.218e-05, "MEAN_MOTION_DDOT": 0}, "tle": {"line1": "1 34350U 97051ES  25360.03185963  .00001218  00000+0  33943-3 0  9994", "line2": "2 34350  86.3273 357.0387 0023521  94.6131 326.9931 14.45417432884857"}}, "geometry": {"type": "Point", "coordinates": [-5.585708591866198, -33.990850898015545]}}, {"type": "Feature", "properties": {"norad_id": 34366, "name": "IRIDIUM 33 DEB", "group": "iridium-33-debris", "lat": 0.1047039489120866, "lon": 43.39432855222865, "alt_km": 717.1836777526669, "timestamp": "2025-12-26T08:37:54.964913+00:00", "meta": {"OBJECT_NAME": "IRIDIUM 33 DEB", "OBJECT_ID": "1997-051FJ", "EPOCH": "2025-12-26T03:56:31.226784", "MEAN_MOTION": 14.54157583, "ECCENTRICITY": 0.0023051, "INCLINATION": 86.3679, "RA_OF_ASC_NODE": 43.4727, "ARG_OF_PERICENTER": 98.1181, "MEAN_ANOMALY": 320.0434, "EPHEMERIS_TYPE": 0, "CLASSIFICATION_TYPE": "U", "NORAD_CAT_ID": 34366, "ELEMENT_SET_NO": 999, "REV_AT_EPOCH": 88377, "BSTAR": 0.00085397, "MEAN_MOTION_DOT": 3.644e-05, "MEAN_MOTION_DDOT": 0}, "tle": {"line1": "1 34366U 97051FJ  25360.16425031  .00003644  00000+0  85397-3 0  9993", "line2": "2 34366  86.3679  43.4727 0023051  98.1181 320.0434 14.54157583883771"}}, "geometry": {"type": "Point", "coordinates": [43.39432855222865, 0.1047039489120866]}}, {"type": "Feature", "properties": {"norad_id": 34375, "name": "IRIDIUM 33 DEB", "group": "iridium-33-debris", "lat": -52.84958601173357, "lon": 172.48824982118794, "alt_km": 893.4659166058536, "timestamp": "2025-12-26T08:37:54.964923+00:00", "meta": {"OBJECT_NAME": "IRIDIUM 33 DEB", "OBJECT_ID": "1997-051FT", "EPOCH": "2025-12-25T12:52:34.268736", "MEAN_MOTION": 14.18014941, "ECCENTRICITY": 0.0103685, "INCLINATION": 86.4324, "RA_OF_ASC_NODE": 177.5431, "ARG_OF_PERICENTER": 86.7144, "MEAN_ANOMALY": 341.7037, "EPHEMERIS_TYPE": 0, "CLASSIFICATION_TYPE": "U", "NORAD_CAT_ID": 34375, "ELEMENT_SET_NO": 999, "REV_AT_EPOCH": 86893, "BSTAR": 0.00040149, "MEAN_MOTION_DOT": 8.86e-06, "MEAN_MOTION_DDOT": 0}, "tle": {"line1": "1 34375U 97051FT  25359.53650774  .00000886  00000+0  40149-3 0  9997", "line2": "2 34375  86.4324 177.5431 0103685  86.7144 341.7037 14.18014941868934"}}, "geometry": {"type": "Point", "coordinates": [172.48824982118794, -52.84958601173357]}}]}